{
    "links": {
        "self": "http://www.neowsapp.com/rest/v1/neo/54075591?api_key=iIulBulltgU6a56xZRHN4H3l9WmuAYTsLGpBGhQ2"
    },
    "id": "54075591",
    "neo_reference_id": "54075591",
    "name": "(2020 UV2)",
    "designation": "2020 UV2",
    "nasa_jpl_url": "http://ssd.jpl.nasa.gov/sbdb.cgi?sstr=54075591",
    "absolute_magnitude_h": 25.088,
    "estimated_diameter": {
        "kilometers": {
            "estimated_diameter_min": 0.0255243668,
            "estimated_diameter_max": 0.0570742192
        },
        "meters": {
            "estimated_diameter_min": 25.5243667734,
            "estimated_diameter_max": 57.0742191879
        },
        "miles": {
            "estimated_diameter_min": 0.0158601013,
            "estimated_diameter_max": 0.0354642647
        },
        "feet": {
            "estimated_diameter_min": 83.7413634848,
            "estimated_diameter_max": 187.2513812805
        }
    },
    "is_potentially_hazardous_asteroid": false,
    "close_approach_data": [
        {
            "close_approach_date": "2020-10-27",
            "close_approach_date_full": "2020-Oct-27 21:49",
            "epoch_date_close_approach": 1603835340000,
            "relative_velocity": {
                "kilometers_per_second": "6.551444436",
                "kilometers_per_hour": "23585.1999696883",
                "miles_per_hour": "14654.9260589433"
            },
            "miss_distance": {
                "astronomical": "0.0724129937",
                "lunar": "28.1686545493",
                "kilometers": "10832829.617843419",
                "miles": "6731208.1942564222"
            },
            "orbiting_body": "Earth"
        }
    ],
    "orbital_data": {
        "orbit_id": "1",
        "orbit_determination_date": "2020-10-21 05:12:09",
        "first_observation_date": "2020-10-06",
        "last_observation_date": "2020-10-21",
        "data_arc_in_days": 15,
        "observations_used": 19,
        "orbit_uncertainty": "8",
        "minimum_orbit_intersection": ".0520078",
        "jupiter_tisserand_invariant": "3.904",
        "epoch_osculation": "2459135.5",
        "eccentricity": ".4438649167957919",
        "semi_major_axis": "1.830963903963453",
        "inclination": "2.468133399623423",
        "ascending_node_longitude": "138.6504573654906",
        "orbital_period": "904.9364900810358",
        "perihelion_distance": "1.018263263074617",
        "perihelion_argument": "278.0775900638799",
        "aphelion_distance": "2.64366454485229",
        "perihelion_time": "2459167.863285120977",
        "mean_anomaly": "347.1253035199096",
        "mean_motion": ".3978179728035527",
        "equinox": "J2000",
        "orbit_class": {
            "orbit_class_type": "AMO",
            "orbit_class_description": "Near-Earth asteroid orbits similar to that of 1221 Amor",
            "orbit_class_range": "1.017 AU < q (perihelion) < 1.3 AU"
        }
    },
    "is_sentry_object": false
}